ONEWEB-0210             
1 48787U 21045W   25037.41040732  .00000193  00000+0  47922-3 0  9993
2 48787  87.9106 357.8988 0001767 108.4312 251.7011 13.15549526179134
ONEWEB-0214             
1 48788U 21045X   25037.41991663  .00000131  00000+0  31454-3 0  9997
2 48788  87.9109 357.8859 0001538  99.3454 260.7850 13.15549324179100
ONEWEB-0221             
1 48789U 21045Y   25037.42625553  .00000130  00000+0  31065-3 0  9998
2 48789  87.9111 357.9090 0001977  86.8065 273.3291 13.15549606179199
ONEWEB-0213             
1 48790U 21045Z   25037.41514719  .00000208  00000+0  51852-3 0  9992
2 48790  87.9109 357.9207 0001863  92.5367 267.5976 13.15550369179251
ONEWEB-0212             
1 48791U 21045AA  25037.39217578  .00000084  00000+0  18983-3 0  9993
2 48791  87.9109 357.9125 0001918  82.3955 277.7393 13.15550205179246
ONEWEB-0227             
1 48792U 21045AB  25037.39139004  .00000084  00000+0  19001-3 0  9993
2 48792  87.9111 357.9258 0001990  86.3313 273.8044 13.15549048179196
ONEWEB-0226             
1 48793U 21045AC  25037.38505235  .00000049  00000+0  97111-4 0  9996
2 48793  87.9107 357.9320 0001813  97.0808 263.0528 13.15548744179161
ONEWEB-0224             
1 48794U 21045AD  25037.42465790  .00000095  00000+0  21880-3 0  9993
2 48794  87.9114 357.9552 0002855  82.8794 277.2661 13.15549399179094
